COSMOS 2550             
1 48865U 21056A   26067.47400841 -.00000192  00000+0 -13338-7 0  9992
2 48865  67.1451  44.6088 0008369 269.6014  90.4182 15.33829151263273
STARLINK-35503          
1 66245U 25245M   26068.82785589  .00028955  00000+0  98558-3 0  9991
2 66245  53.1577 283.5394 0001144 108.4847 251.6278 15.30211126 21229
