[{"OBJECT_NAME":"COSMOS 2550","OBJECT_ID":"2021-056A","EPOCH":"2026-03-08T11:22:34.326624","MEAN_MOTION":15.33829151,"ECCENTRICITY":0.00083692,"INCLINATION":67.1451,"RA_OF_ASC_NODE":44.6088,"ARG_OF_PERICENTER":269.6014,"MEAN_ANOMALY":90.4182,"EPHEMERIS_TYPE":0,"CLASSIFICATION_TYPE":"U","NORAD_CAT_ID":48865,"ELEMENT_SET_NO":999,"REV_AT_EPOCH":26327,"BSTAR":-1.3338e-8,"MEAN_MOTION_DOT":-1.92e-6,"MEAN_MOTION_DDOT":0},{"OBJECT_NAME":"STARLINK-35503","OBJECT_ID":"2025-245M","EPOCH":"2026-03-09T19:52:06.749760","MEAN_MOTION":15.30211126,"ECCENTRICITY":0.00011442,"INCLINATION":53.1577,"RA_OF_ASC_NODE":283.5394,"ARG_OF_PERICENTER":108.4847,"MEAN_ANOMALY":251.6278,"EPHEMERIS_TYPE":0,"CLASSIFICATION_TYPE":"U","NORAD_CAT_ID":66245,"ELEMENT_SET_NO":999,"REV_AT_EPOCH":2122,"BSTAR":0.00098557575,"MEAN_MOTION_DOT":0.00028955,"MEAN_MOTION_DDOT":0}]
